#dP2021  6 27  0  0  0.00000000      96 __u+U ITR00 FIT  IAC
## 2164      0.00000000   900.00000000 59392 0.0000000000000
+  116   C06C07C08C09C10C11C12C13C14C16C19C20C21C22C23C24C25
+        C26C27C28C29C30C32C33C34C35C36C37C38C39C40C41C42C43
+        C44C45C46E01E02E03E04E05E07E08E09E11E12E13E14E15E18
+        E19E21E24E25E26E27E30E31E33E36G01G02G03G04G05G06G07
+        G08G09G10G12G13G14G15G16G17G18G19G20G21G22G23G24G25
+        G26G27G28G29G30G31G32J01J02J03R01R02R03R04R05R07R08
+        R09R11R12R13R14R15R16R17R18R19R20R21R22R24  0  0  0
++         9 10  9  7  9  7  7  7  6  8  8  7  6  6  7  7  5
++         8  6  6  8  7  7  7  7  6  9  7  8  8  8  6  7  8
++         7  8  7  6  8  6  6  6  6  7  6  7  7  6  6  7  6
++         6  6  6  7  7  7  6  6  7  7  6  7  6  6  5  6  7
++         7  6  6  6  7  6  6  6  6  6  7  6  6  7  7  6  6
++         6  7  7  6  7  6  7  8  8  8  8  7  7  7  6  7  6
++         8  6  7  8  7  6  7  6  6  7  8  7  7  6  0  0  0
%c M  cc GPS ccc cccc cccc cccc cccc ccccc ccccc ccccc ccccc
%c cc cc ccc ccc cccc cccc cccc cccc ccccc ccccc ccccc ccccc
%f  0.0000000  0.000000000  0.00000000000  0.000000000000000
%f  0.0000000  0.000000000  0.00000000000  0.000000000000000
%i    0    0    0    0      0      0      0      0         0
%i    0    0    0    0      0      0      0      0         0
/* INFORMATION & ANALYSIS CENTER (IAC)      ULTRA-RAPID DATA
/* S/V CLOCKS ARE ALIGNED TO GNSS TIME                      
/* G:C1WC2W R:C1PC2P E:C1XC5X C:C2IC6I J:C1CC2S             
/* PCV:IGS14_2148 OL/AL:FES2004  NONE     YN ORB:CoN CLK:CoN
*  2021 06 27 11 30  0.00000000
PC06 -12221.509415  37637.722963  15741.552374    553.713699
PC07 -12610.372621  23306.052117 -32548.058811     29.143774
PC08 -23862.282860  27859.591351  20561.552853   -897.933911
PC09  -3550.525287  42251.604957   1125.757423    416.993427
PC10   2724.517011  28603.928161 -30495.175052    -25.069255
PC11  -2241.621881  27737.860878   1800.763056    424.187219
PC12 -12191.180134  20087.237660 -15010.974988    830.208587
PC13 -12398.492545  28712.477175  28251.121094    315.456536
PC14   4320.614955  19595.131462  19394.025488    860.385911
PC16  -9870.016319  38879.251764  13483.713825   -925.727118
PC19 -13893.959111 -20604.729587 -12689.439558    887.896547
PC20   3843.995058 -16215.608467 -22371.097559   -862.563806
PC21 -20258.236361   1805.670443  19139.464582   -935.040676
PC22 -24132.914075 -13257.334442   4654.050430   -948.939779
PC23  21609.192190   3883.383295 -17212.647767   -949.816377
PC24 -15544.628765  18170.529905 -14370.895352   -912.042629
PC25   5474.474163  15322.833201 -22672.161306   -894.613650
PC26 -25517.157432  11193.861510   1156.428432    886.834003
PC27  15470.035167 -10991.551264  20431.043892    555.088119
PC28  13988.670167  10334.481302  21818.854065    -57.379717
PC29  -5279.889863 -25365.334761 -10377.727510    411.761762
PC30   7247.463157 -25845.270387   7584.738225    472.124010
PC32  20231.559181  -1953.851746 -19097.379451   -924.195795
PC33  13872.694794  20550.278750  12792.021567   -938.675994
PC34  -6886.332244  26166.656529  -6890.747704   -641.001524
PC35 -14306.506112 -10220.687093 -21673.467750   -213.842716
PC36  -4700.619464 -15623.906671  22668.480038   -729.277279
PC37  25964.849864 -10043.036957  -2015.013219   -870.264255
PC38 -21701.088210  29551.672787  20692.362114    157.976401
PC39  -6325.768208  39902.520478  12347.613654     32.043846
PC40  -2402.586487  24020.689191 -34517.518286    175.027794
PC41  24084.346059  13418.513959  -4267.617481   -951.972619
PC42  -4730.492864  15818.482763  22540.394066   -915.329392
PC43   4846.223109  25665.950795   9842.362237   -795.374977
PC44 -15264.508560  11315.279259 -20461.894789    260.579188
PC45 -21658.469244  -3674.013087  17209.530366    478.311828
PC46  14627.111443 -18299.530112  15197.339893    205.206743
PE01  -5795.249217  15996.519491 -24217.780293  -1138.062284
PE02   5652.294883 -16021.231308  24241.905532    228.980604
PE03   -967.632894 -25492.083405 -15022.214950   -446.477979
PE04  14849.939331  25480.870005  -2492.784844   -801.247515
PE05  13729.761484 -10517.967395 -24014.224734   -269.673045
PE07 -20262.737745 -10410.391022  18918.943785   -554.855508
PE08 -15158.638893 -25274.529405   2851.480657   5979.382457
PE09  20185.687219  10171.969727 -19093.149094   5619.639069
PE11  18463.598011   -773.815991  23103.923732   5796.571424
PE12   5482.101789  18537.857805  22413.322643   5139.450090
PE13 -18235.697841    421.015287 -23316.172785    418.283209
PE14   7421.575325  23930.629245   2362.889417  -1480.554778
PE15  -5532.213337 -18439.420653 -22483.934163    806.556186
PE18 -17274.747073 -21981.239822 -15030.561577  -1622.042850
PE19   -818.945103  24392.030885  16759.652281    312.647986
PE21 -24037.331307   8704.193780 -14920.436354   -673.025397
PE24  28934.502305   4659.640768  -4229.333334   -977.204418
PE25  24173.003676  -8595.595330  14771.088521   -538.217588
PE26 -20118.691832  19475.531560  -9598.979251   1645.175392
PE27 -29136.438877  -3956.496113   3393.922129    -63.285382
PE30 -16014.797474 -14644.105151  20121.363946   2830.013175
PE31  17080.699809  14187.837920 -19562.562458   -482.649491
PE33 -10407.702086  26406.085433   8412.131200   -468.534168
PE36  20171.530089 -18986.845564  10416.700812   -226.633285
PG01  12320.436354 -21491.361895  -9356.157745    645.673723
PG02 -20331.927007  11313.691420 -12209.726967   -615.484980
PG03   6573.429785 -13776.956163 -21814.691006   -203.816264
PG04   2393.574564 -23692.099398 -11693.868690   -201.026824
PG05 -19716.907501   7510.845688  16087.047106    -46.190946
PG06 -17764.968694   -423.823857 -19705.370939     32.245167
PG07  -1053.879983 -18528.169018  19175.303528    188.676161
PG08   8705.064687 -16201.798688  19033.877161    -26.667308
PG09  -6890.738932 -25602.084953  -1428.801648   -353.076228
PG10  22097.572380  11871.348939   9253.433679   -150.648716
PG12  -8557.811488  12853.828382 -21847.477852    -60.724524
PG13 -13599.592242   7881.178516  21256.093474    150.244812
PG14 -21559.874123 -12778.583275   8848.699392     60.502054
PG15  -7279.393549  17496.319418  18104.468969   -139.508301
PG16  23611.024089   -781.417598  12338.954902   -347.931571
PG17 -12729.569445 -19686.551594 -12050.903907    464.955119
PG18   3070.149287  16734.350160  20362.734709    344.552889
PG19 -14998.304025 -11560.091405 -18964.054154     18.835040
PG20 -22910.633752   6302.868641  11495.419846    520.753941
PG21  16792.088781 -20208.459960    146.113902    127.707428
PG22  15494.725066 -11297.923207 -18111.727146   -577.957255
PG23  12632.400572  15276.202992  17682.939748     91.962737
PG24 -14323.851091  21802.291818  -3931.065052    151.034926
PG25   4962.203387  16160.425274 -20809.924637    163.368805
PG26  26369.010992   3694.427655   2035.010684    103.594084
PG27  14014.733993  -4805.093525  21856.727278   -153.875867
PG28 -23892.251587 -10924.682587   3670.375513    547.623324
PG29   3981.775514  26126.946580  -2367.158922   -370.985860
PG30 -12554.824388  -9697.811668  21379.878213   -444.033488
PG31  19605.914970  -1387.173037 -18158.815406   -125.422482
PG32  15270.141362  16656.420200 -13980.211401     16.822042
PJ01 -26277.571960  21150.122804  30337.157083   -403.841718
PJ02 -33731.136091  15978.529283 -15106.380723     -0.453365
PJ03 -20565.462520  32142.309043 -13474.771049     -9.298999
PR01 -19658.779921 -13014.640365   9764.863209     81.490026
PR02 -11285.215106   3605.466350  22627.597889    483.919623
PR03   2880.077896  16354.696451  19427.567554     38.441199
PR04  15268.838565  19708.296018   5439.085821     93.180164
PR05  19124.353074  12254.919896 -11614.728764     74.315528
PR07  -3417.837051 -16627.327686 -18982.138668    -42.206413
PR08 -15359.923039 -19657.405190  -5218.438256    -59.699151
PR09  22634.191380  -9420.405587   6924.545244      0.010047
PR11  -9278.101394  -8406.917882  22239.025111    -15.890998
PR12 -23093.838162    462.973404  10834.624199    240.610146
PR13 -23010.422604   9092.924278  -6227.391232    -56.904771
PR14  -9061.861908  12409.773222 -20351.109376     65.816418
PR15   9724.838308   8424.739521 -22001.145137    103.014260
PR16  23585.377806  -1571.992437  -9767.399539    -17.011819
PR17  -7099.455637  24477.243025    290.224170    436.192357
PR18   1523.154658  19830.955588  16009.280048     81.460435
PR19   8954.343625   5732.816498  23178.160533   -149.342832
PR20  12618.485533 -14709.975084  16561.052122    -51.554477
PR21   6633.096872 -24596.104285  -1578.021314   -219.624779
PR22  -2003.484163 -19033.662257 -16831.998364   -119.778947
PR24 -12628.178798  15452.706612 -15869.710883     48.184275
EOF
